{
  "type": "FeatureCollection",
  "features": [
    {
      "type": "Feature",
      "properties": {
        "norad_id": 29961,
        "name": "FENGYUN 1C DEB",
        "group": "fengyun-1c-debris",
        "lat": -64.78303949346783,
        "lon": 49.59817128583481,
        "alt_km": 760.4591955514688,
        "timestamp": "2025-12-27T10:28:59.067302+00:00",
        "meta_object_name": "FENGYUN 1C DEB",
        "meta_object_id": "1999-025KK",
        "meta_epoch": "2025-12-26T23:13:28.435008",
        "meta_mean_motion": 14.26228605,
        "meta_eccentricity": 0.0073812,
        "meta_inclination": 98.9481,
        "meta_ra_of_asc_node": 248.6654,
        "meta_arg_of_pericenter": 263.293,
        "meta_mean_anomaly": 95.9845,
        "meta_ephemeris_type": 0,
        "meta_classification_type": "U",
        "meta_norad_cat_id": 29961,
        "meta_element_set_no": 999,
        "meta_rev_at_epoch": 98512,
        "meta_bstar": 0.00022127,
        "meta_mean_motion_dot": 4.99e-06,
        "meta_mean_motion_ddot": 0,
        "tle_line1": "1 29961U 99025KK  25360.96769022  .00000499  00000+0  22127-3 0  9997",
        "tle_line2": "2 29961  98.9481 248.6654 0073812 263.2930  95.9845 14.26228605985120"
      },
      "geometry": {
        "type": "Point",
        "coordinates": [
          49.59817128583481,
          -64.78303949346783
        ]
      }
    },
    {
      "type": "Feature",
      "properties": {
        "norad_id": 29962,
        "name": "FENGYUN 1C DEB",
        "group": "fengyun-1c-debris",
        "lat": 48.97594406834674,
        "lon": -160.61022558151268,
        "alt_km": 812.2048522549476,
        "timestamp": "2025-12-27T10:28:59.067312+00:00",
        "meta_object_name": "FENGYUN 1C DEB",
        "meta_object_id": "1999-025KL",
        "meta_epoch": "2025-12-26T19:19:28.980192",
        "meta_mean_motion": 14.0716536,
        "meta_eccentricity": 0.01103247,
        "meta_inclination": 98.7681,
        "meta_ra_of_asc_node": 8.5592,
        "meta_arg_of_pericenter": 181.4794,
        "meta_mean_anomaly": 351.8763,
        "meta_ephemeris_type": 0,
        "meta_classification_type": "U",
        "meta_norad_cat_id": 29962,
        "meta_element_set_no": 999,
        "meta_rev_at_epoch": 97195,
        "meta_bstar": 6.4312621e-05,
        "meta_mean_motion_dot": 7.1e-07,
        "meta_mean_motion_ddot": 0,
        "tle_line1": "1 29962U 99025KL  25360.80519653  .00000071  00000+0  64313-4 0  9994",
        "tle_line2": "2 29962  98.7681   8.5592 0110324 181.4794 351.8763 14.07165360971950"
      },
      "geometry": {
        "type": "Point",
        "coordinates": [
          -160.61022558151268,
          48.97594406834674
        ]
      }
    },
    {
      "type": "Feature",
      "properties": {
        "norad_id": 29963,
        "name": "FENGYUN 1C DEB",
        "group": "fengyun-1c-debris",
        "lat": 56.66511299179601,
        "lon": -128.06092719337883,
        "alt_km": 821.8279971558986,
        "timestamp": "2025-12-27T10:28:59.067322+00:00",
        "meta_object_name": "FENGYUN 1C DEB",
        "meta_object_id": "1999-025KM",
        "meta_epoch": "2025-12-27T04:12:01.233792",
        "meta_mean_motion": 14.29511169,
        "meta_eccentricity": 0.005086,
        "meta_inclination": 98.9984,
        "meta_ra_of_asc_node": 245.609,
        "meta_arg_of_pericenter": 259.9954,
        "meta_mean_anomaly": 251.1902,
        "meta_ephemeris_type": 0,
        "meta_classification_type": "U",
        "meta_norad_cat_id": 29963,
        "meta_element_set_no": 999,
        "meta_rev_at_epoch": 98349,
        "meta_bstar": 0.00076304,
        "meta_mean_motion_dot": 1.93e-05,
        "meta_mean_motion_ddot": 0,
        "tle_line1": "1 29963U 99025KM  25361.17501428  .00001930  00000+0  76304-3 0  9994",
        "tle_line2": "2 29963  98.9984 245.6090 0050860 259.9954 251.1902 14.29511169983498"
      },
      "geometry": {
        "type": "Point",
        "coordinates": [
          -128.06092719337883,
          56.66511299179601
        ]
      }
    },
    {
      "type": "Feature",
      "properties": {
        "norad_id": 29964,
        "name": "FENGYUN 1C DEB",
        "group": "fengyun-1c-debris",
        "lat": -20.14918123943343,
        "lon": -154.13374543553363,
        "alt_km": 923.8566020917915,
        "timestamp": "2025-12-27T10:28:59.067333+00:00",
        "meta_object_name": "FENGYUN 1C DEB",
        "meta_object_id": "1999-025KN",
        "meta_epoch": "2025-12-27T02:01:19.166304",
        "meta_mean_motion": 14.02778547,
        "meta_eccentricity": 0.0130979,
        "meta_inclination": 98.37,
        "meta_ra_of_asc_node": 202.4454,
        "meta_arg_of_pericenter": 228.7413,
        "meta_mean_anomaly": 130.2413,
        "meta_ephemeris_type": 0,
        "meta_classification_type": "U",
        "meta_norad_cat_id": 29964,
        "meta_element_set_no": 999,
        "meta_rev_at_epoch": 96518,
        "meta_bstar": 0.00092024,
        "meta_mean_motion_dot": 1.495e-05,
        "meta_mean_motion_ddot": 0,
        "tle_line1": "1 29964U 99025KN  25361.08424961  .00001495  00000+0  92024-3 0  9994",
        "tle_line2": "2 29964  98.3700 202.4454 0130979 228.7413 130.2413 14.02778547965184"
      },
      "geometry": {
        "type": "Point",
        "coordinates": [
          -154.13374543553363,
          -20.14918123943343
        ]
      }
    },
    {
      "type": "Feature",
      "properties": {
        "norad_id": 29965,
        "name": "FENGYUN 1C DEB",
        "group": "fengyun-1c-debris",
        "lat": 77.87130284254665,
        "lon": -51.585328951821985,
        "alt_km": 837.6189842963659,
        "timestamp": "2025-12-27T10:28:59.067343+00:00",
        "meta_object_name": "FENGYUN 1C DEB",
        "meta_object_id": "1999-025KP",
        "meta_epoch": "2025-12-27T00:05:33.668160",
        "meta_mean_motion": 13.9578294,
        "meta_eccentricity": 0.0145763,
        "meta_inclination": 98.9633,
        "meta_ra_of_asc_node": 355.2498,
        "meta_arg_of_pericenter": 29.0341,
        "meta_mean_anomaly": 37.2203,
        "meta_ephemeris_type": 0,
        "meta_classification_type": "U",
        "meta_norad_cat_id": 29965,
        "meta_element_set_no": 999,
        "meta_rev_at_epoch": 96475,
        "meta_bstar": 0.00033596,
        "meta_mean_motion_dot": 4.58e-06,
        "meta_mean_motion_ddot": 0,
        "tle_line1": "1 29965U 99025KP  25361.00386190  .00000458  00000+0  33596-3 0  9995",
        "tle_line2": "2 29965  98.9633 355.2498 0145763  29.0341  37.2203 13.95782940964758"
      },
      "geometry": {
        "type": "Point",
        "coordinates": [
          -51.585328951821985,
          77.87130284254665
        ]
      }
    },
    {
      "type": "Feature",
      "properties": {
        "norad_id": 29966,
        "name": "FENGYUN 1C DEB",
        "group": "fengyun-1c-debris",
        "lat": 68.19821230957947,
        "lon": -175.11436347846168,
        "alt_km": 815.960753404469,
        "timestamp": "2025-12-27T10:28:59.067353+00:00",
        "meta_object_name": "FENGYUN 1C DEB",
        "meta_object_id": "1999-025KQ",
        "meta_epoch": "2025-12-27T03:25:03.761760",
        "meta_mean_motion": 14.25779468,
        "meta_eccentricity": 0.003917,
        "meta_inclination": 99.4908,
        "meta_ra_of_asc_node": 209.2884,
        "meta_arg_of_pericenter": 304.3823,
        "meta_mean_anomaly": 55.3652,
        "meta_ephemeris_type": 0,
        "meta_classification_type": "U",
        "meta_norad_cat_id": 29966,
        "meta_element_set_no": 999,
        "meta_rev_at_epoch": 98248,
        "meta_bstar": 0.0004423,
        "meta_mean_motion_dot": 1.008e-05,
        "meta_mean_motion_ddot": 0,
        "tle_line1": "1 29966U 99025KQ  25361.14240465  .00001008  00000+0  44230-3 0  9994",
        "tle_line2": "2 29966  99.4908 209.2884 0039170 304.3823  55.3652 14.25779468982489"
      },
      "geometry": {
        "type": "Point",
        "coordinates": [
          -175.11436347846168,
          68.19821230957947
        ]
      }
    },
    {
      "type": "Feature",
      "properties": {
        "norad_id": 29967,
        "name": "FENGYUN 1C DEB",
        "group": "fengyun-1c-debris",
        "lat": 48.44944483424024,
        "lon": -91.70191717517298,
        "alt_km": 835.1627776461628,
        "timestamp": "2025-12-27T10:28:59.067363+00:00",
        "meta_object_name": "FENGYUN 1C DEB",
        "meta_object_id": "1999-025KR",
        "meta_epoch": "2025-12-25T04:01:46.363008",
        "meta_mean_motion": 14.23674669,
        "meta_eccentricity": 0.0076868,
        "meta_inclination": 98.8643,
        "meta_ra_of_asc_node": 75.8707,
        "meta_arg_of_pericenter": 256.4569,
        "meta_mean_anomaly": 132.8645,
        "meta_ephemeris_type": 0,
        "meta_classification_type": "U",
        "meta_norad_cat_id": 29967,
        "meta_element_set_no": 999,
        "meta_rev_at_epoch": 97399,
        "meta_bstar": 0.0015964,
        "meta_mean_motion_dot": 3.711e-05,
        "meta_mean_motion_ddot": 0,
        "tle_line1": "1 29967U 99025KR  25359.16789772  .00003711  00000+0  15964-2 0  9997",
        "tle_line2": "2 29967  98.8643  75.8707 0076868 256.4569 132.8645 14.23674669973993"
      },
      "geometry": {
        "type": "Point",
        "coordinates": [
          -91.70191717517298,
          48.44944483424024
        ]
      }
    }
  ]
}